satname,norad_id,inclination_deg,eccentricity,mean_motion_rev_per_day,perigee_km,apogee_km,l1,l2
STARLINK-1470,45772,53.0516,0.0006764,15.21510979,496.62906894912703,505.9355473892183,1 45772U 20038AU  25358.75444134  .00050184  00000+0  21997-2 0  9990,2 45772  53.0516 160.4169 0006764 115.3953 244.7743 15.21510979305643
STARLINK-1482,45773,53.055,0.0001103,15.06397288,546.4560029774057,547.9837367028922,1 45773U 20038AV  25358.81310964  .00001290  00000+0  10548-3 0  9996,2 45773  53.0550 172.7492 0001103  92.3282 267.7833 15.06397288305473
STARLINK-1496,45780,53.0536,8.07e-05,15.23715045,494.09198408862267,495.201251364525,1 45780U 20038BC  25358.91670139  .02126637  00000+0  78278-1 0  9995,2 45780  53.0536 171.7427 0000807  71.2937 231.9026 15.23715045  5787
STARLINK-1497,45781,53.0319,0.0002373,15.72497776,350.1639858583676,353.3579954447305,1 45781U 20038BD  25358.91670139  .00203731  00000+0  14639-2 0  9997,2 45781  53.0319  95.7669 0002373   5.9116 290.5536 15.72497776  6008
STARLINK-1510,45784,53.0207,0.0007013,16.01496934,265.61005537673464,274.9351146606814,1 45784U 20038BG  25358.68067573  .00489579  11735-3  85795-3 0  9995,2 45784  53.0207  64.8128 0007013 353.2538   6.8397 16.01496934306977
STARLINK-1513,45786,53.0556,0.000135,15.06400914,546.2738349841857,548.1436783384834,1 45786U 20038BJ  25358.80942350 -.00002894  00000+0 -17543-3 0  9994,2 45786  53.0556 172.7695 0001350  89.7616 270.3528 15.06400914305475
STARLINK-1522,46027,53.0552,0.0001447,15.06396504,546.2201732087242,548.2243721822433,1 46027U 20055A   25357.46311498  .00002036  00000+0  15554-3 0  9992,2 46027  53.0552 108.8102 0001447  86.7349 273.3805 15.06396504297391
STARLINK-1523,46028,53.0557,9.07e-05,15.06386033,546.6262321155937,547.8824981092257,1 46028U 20055B   25358.80482111 -.00001516  00000+0 -82923-4 0  9992,2 46028  53.0557 102.7928 0000907  94.3483 265.7610 15.06386033297610
STARLINK-1526,46029,53.0542,9.4e-05,15.06404771,546.5459541590781,547.847916938962,1 46029U 20055C   25358.59839389 -.00000199  00000+0  55147-5 0  9996,2 46029  53.0542 103.7133 0000940  75.1935 284.9158 15.06404771297575
STARLINK-1555,46032,53.0549,0.0001073,15.06405695,546.4510156110764,547.9371916659175,1 46032U 20055F   25358.65000720  .00000540  00000+0  55110-4 0  9994,2 46032  53.0549 103.4830 0001073  80.1959 279.9151 15.06405695297581
STARLINK-1556,46033,53.0551,0.0001142,15.06399253,546.4229723198641,548.0047224534073,1 46033U 20055G   25356.70752107  .00003270  00000+0  23831-3 0  9999,2 46033  53.0551 112.2039 0001142  85.8716 274.2404 15.06399253297260
STARLINK-1557,46034,53.0552,0.000127,15.06395393,546.3461567056565,548.1051988258096,1 46034U 20055H   25358.56891903 -.00000795  00000+0 -34473-4 0  9990,2 46034  53.0552 103.8475 0001270  86.7813 273.3321 15.06395393297542
STARLINK-1558,46035,53.054,0.0001591,15.06390731,546.1381387586343,548.3417937092909,1 46035U 20055J   25358.57628826 -.00001457  00000+0 -78977-4 0  9997,2 46035  53.0540 103.8169 0001591  95.7600 264.3570 15.06390731297570
STARLINK-1560,46036,53.055,0.0001578,15.06384581,546.1659878959645,548.3516428152898,1 46036U 20055K   25358.56154426 -.00000552  00000+0 -18172-4 0  9993,2 46036  53.0550 103.8855 0001578  91.6282 268.4888 15.06384581297573
STARLINK-1567,46038,53.0538,0.0001157,15.06372813,546.493610961912,548.0961558997387,1 46038U 20055M   25358.57261218 -.00006275  00000+0 -40304-3 0  9993,2 46038  53.0538 103.8326 0001157  93.2343 266.8778 15.06372813297567
STARLINK-1569,46039,53.0545,0.0001275,15.06390517,546.3576364731243,548.1236077667654,1 46039U 20055N   25358.77902146 -.00001934  00000+0 -11099-3 0  9994,2 46039  53.0545 102.9053 0001275  94.3054 265.8081 15.06390517297595
STARLINK-1582,46043,53.0567,0.0001549,15.0639063,546.1675348475892,548.3130167276277,1 46043U 20055S   25358.58735420 -.00001502  00000+0 -81993-4 0  9999,2 46043  53.0567 103.7651 0001549  90.6059 269.5107 15.06390630297568
STARLINK-1591,46045,53.056,0.0001458,15.06387824,546.2391546152721,548.258597136678,1 46045U 20055U   25358.67950148 -.00001950  00000+0 -11208-3 0  9995,2 46045  53.0560 103.3504 0001458  85.6417 274.4739 15.06387824297564
STARLINK-1524,46047,53.0537,0.0001275,15.06415287,546.2817299137232,548.0476818487223,1 46047U 20055W   25357.43823507  .00002023  00000+0  15458-3 0  9999,2 46047  53.0537  98.9270 0001275  66.3336 293.7787 15.06415287297531
STARLINK-1527,46048,53.0548,0.0001301,15.06393119,546.3316567013962,548.1336378836213,1 46048U 20055X   25358.69516397  .00000399  00000+0  45665-4 0  9993,2 46048  53.0548  93.2802 0001301  90.9869 269.1269 15.06393119297707
STARLINK-1540,46051,53.0561,0.0001204,15.06401167,546.374169717923,548.0417927894077,1 46051U 20055AA  25358.66198483 -.00000410  00000+0 -86593-5 0  9998,2 46051  53.0561  93.4292 0001204 102.2399 257.8725 15.06401167297735
STARLINK-1541,46052,53.0588,0.0001713,15.06392654,546.0477563970408,548.4203885264669,1 46052U 20055AB  25358.64725015 -.00000319  00000+0 -25364-5 0  9991,2 46052  53.0588  93.4969 0001713  91.4024 268.7161 15.06392654297695
STARLINK-1543,46053,53.0557,0.0001287,15.0639557,546.3338411767027,548.1164293903257,1 46053U 20055AC  25358.58458694 -.00000588  00000+0 -20589-4 0  9992,2 46053  53.0557  93.7771 0001287  89.1786 270.9350 15.06395570297719
STARLINK-1548,46054,53.0542,9.32e-05,15.06407108,546.5443325724318,547.8352134829238,1 46054U 20055AD  25358.65830520  .00001378  00000+0  11134-3 0  9994,2 46054  53.0542  93.4481 0000932 106.5268 253.5824 15.06407108297729
STARLINK-1554,46055,53.0539,0.0001334,15.06370018,546.3795962181657,548.2273037302175,1 46055U 20055AE  25358.64357521 -.00006261  00000+0 -40210-3 0  9994,2 46055  53.0539  93.5127 0001334  93.6247 266.4894 15.06370018297723
STARLINK-1564,46058,53.057,0.0001379,15.06392832,546.2785183173482,548.1885355086706,1 46058U 20055AH  25358.52198316  .00000040  00000+0  21599-4 0  9996,2 46058  53.0570  94.5227 0001379  94.1489 265.9658 15.06392832297692
STARLINK-1570,46059,53.0546,9.88e-05,15.06392367,546.5507253338419,547.9191788315729,1 46059U 20055AJ  25358.68410081 -.00001768  00000+0 -99872-4 0  9999,2 46059  53.0546  93.3334 0000988  78.6768 281.4332 15.06392367297688
STARLINK-1572,46060,53.0549,0.000219,15.06399921,545.6951486746966,548.7284514491239,1 46060U 20055AK  25358.28232685 -.00001942  00000+0 -11149-3 0  9993,2 46060  53.0549  95.1335 0002190  93.0519 267.0720 15.06399921297635
